0 FENGYUN 1C DEB
1 30800U 99025AUJ 13283.56089271  .00007656  00000-0  24753-2 0  9189
2 30800 099.0205 039.3297 0069663 065.9568 356.4142 14.37973525344529
0 FENGYUN 1C DEB
1 30800U 99025AUJ 13286.26843572  .00005761  00000-0  18666-2 0  9193
2 30800 099.0203 042.1712 0069228 057.8242 332.8775 14.38002564344917
0 FENGYUN 1C DEB
1 30800U 99025AUJ 13288.28598493  .00009553  00000-0  30819-2 0  9205
2 30800 099.0218 044.2895 0069035 051.7919 337.5413 14.38029984345207
0 FENGYUN 1C DEB
1 30800U 99025AUJ 13290.30342616  .00009056  00000-0  29215-2 0  9212
2 30800 099.0225 046.4076 0068852 045.7403 341.8921 14.38058221345496
0 FENGYUN 1C DEB
1 30800U 99025AUJ 13291.27813370  .00007743  00000-0  25001-2 0  9220
2 30800 099.0232 047.4315 0068769 042.7272 348.1428 14.38073399345630
0 FENGYUN 1C DEB
1 30800U 99025AUJ 13293.30034102  .00007942  00000-0  25626-2 0  9239
2 30800 099.0233 049.5548 0068642 036.6695 017.4629 14.38099581345925
0 FENGYUN 1C DEB
1 30800U 99025AUJ 13295.88844279  .00008709  00000-0  28067-2 0  9243
2 30800 099.0215 052.2705 0068500 028.9286 096.7860 14.38134225346297
